*******************************************************************************
JPL/HORIZONS               912 Maritima (A919 HC)          2023-Sep-04 11:09:06
Rec #:     912 (+COV) Soln.date: 2023-Aug-25_00:24:52   # obs: 6518 (1930-2023)
 
IAU76/J2000 helio. ecliptic osc. elements (au, days, deg., period=Julian yrs):
 
  EPOCH=  2457333.5 ! 2015-Nov-07.00 (TDB)         Residual RMS= .25788
   EC= .1755799568028733   QR= 2.584222581114142   TP= 2458037.9422426252
   OM= 34.03665083783739   W=  88.83708985498343   IN= 18.34188226464018
   A= 3.134594558245389    MA= 234.89421222671     ADIST= 3.684966535376637
   PER= 5.54984            N= .177595522           ANGMOM= .029982821
   DAN= 3.02717            DDN= 3.04882            L= 122.8115161
   B= 18.3379699           MOID= 1.67815995        TP= 2017-Oct-11.4422426252
 
Asteroid physical parameters (km, seconds, rotational period in hours):
   GM= n.a.                RAD= 41.3375            ROTPER= 1332.
   H= 9.35                 G= .150                 B-V= n.a.
                           ALBEDO= .039            STYP= C

ASTEROID comments: 
1: soln ref.= JPL#65, OCC=0
2: source=ORB
*******************************************************************************


*******************************************************************************
Ephemeris / API_USER Mon Sep  4 11:09:06 2023 Pasadena, USA      / Horizons
*******************************************************************************
Target body name: 912 Maritima (A919 HC)          {source: JPL#65}
Center body name: Solar System Barycenter (0)     {source: DE441}
Center-site name: BODY CENTER
*******************************************************************************
Start time      : A.D. 2023-Aug-12 00:00:00.0000 TDB
Stop  time      : A.D. 2023-Aug-13 00:00:00.0000 TDB
Step-size       : 2880 minutes
*******************************************************************************
Center geodetic : 0.0, 0.0, 0.0                   {E-lon(deg),Lat(deg),Alt(km)}
Center cylindric: 0.0, 0.0, 0.0                   {E-lon(deg),Dxy(km),Dz(km)}
Center radii    : (undefined)
Small perturbers: Yes                             {source: SB441-N16}
Output units    : KM-S
Calendar mode   : Mixed Julian/Gregorian
Output type     : GEOMETRIC cartesian states
Output format   : 2 (position and velocity)
Reference frame : Ecliptic of J2000.0
*******************************************************************************
Initial IAU76/J2000 heliocentric ecliptic osculating elements (au, days, deg.):
  EPOCH=  2457333.5 ! 2015-Nov-07.00 (TDB)         Residual RMS= .25788        
   EC= .1755799568028733   QR= 2.584222581114142   TP= 2458037.9422426252      
   OM= 34.03665083783739   W=  88.83708985498343   IN= 18.34188226464018       
  Equivalent ICRF heliocentric cartesian coordinates (au, au/d):
   X= 3.281673765230801E+00  Y=-4.792541641167101E-01  Z=-1.138827920299255E+00
  VX= 1.557498183905503E-03 VY= 6.781473463664372E-03 VZ= 5.095083541650583E-03
Asteroid physical parameters (km, seconds, rotational period in hours):        
   GM= n.a.                RAD= 41.3375            ROTPER= 1332.               
   H= 9.35                 G= .150                 B-V= n.a.                   
                           ALBEDO= .039            STYP= C                     
*******************************************************************************
JDTDB
   X     Y     Z
   VX    VY    VZ
*******************************************************************************
$$SOE
2460168.500000000 = A.D. 2023-Aug-12 00:00:00.0000 TDB 
 X =-3.235470590789627E+08 Y = 1.878265810074780E+08 Z = 1.107571342540016E+08
 VX=-1.164291393702575E+01 VY=-1.605672706806973E+01 VZ=-2.307184488289518E+00
$$EOE
*******************************************************************************
 
TIME

  Barycentric Dynamical Time ("TDB" or T_eph) output was requested. This
continuous coordinate time is equivalent to the relativistic proper time
of a clock at rest in a reference frame co-moving with the solar system
barycenter but outside the system's gravity well. It is the independent
variable in the solar system relativistic equations of motion.

  TDB runs at a uniform rate of one SI second per second and is independent
of irregularities in Earth's rotation.
 
CALENDAR SYSTEM

  Mixed calendar mode was active such that calendar dates after AD 1582-Oct-15
(if any) are in the modern Gregorian system. Dates prior to 1582-Oct-5 (if any)
are in the Julian calendar system, which is automatically extended for dates
prior to its adoption on 45-Jan-1 BC.  The Julian calendar is useful for
matching historical dates. The Gregorian calendar more accurately corresponds
to the Earth's orbital motion and seasons. A "Gregorian-only" calendar mode is
available if such physical events are the primary interest.

REFERENCE FRAME AND COORDINATES

  Ecliptic at the standard reference epoch

    Reference epoch: J2000.0
    X-Y plane: adopted Earth orbital plane at the reference epoch
               Note: IAU76 obliquity of 84381.448 arcseconds wrt ICRF X-Y plane
    X-axis   : ICRF
    Z-axis   : perpendicular to the X-Y plane in the directional (+ or -) sense
               of Earth's north pole at the reference epoch.

  Symbol meaning:

    JDTDB    Julian Day Number, Barycentric Dynamical Time
      X      X-component of position vector (km)
      Y      Y-component of position vector (km)
      Z      Z-component of position vector (km)
      VX     X-component of velocity vector (km/sec)                           
      VY     Y-component of velocity vector (km/sec)                           
      VZ     Z-component of velocity vector (km/sec)                           

ABERRATIONS AND CORRECTIONS

 Geometric state vectors have NO corrections or aberrations applied.

Computations by ...

    Solar System Dynamics Group, Horizons On-Line Ephemeris System
    4800 Oak Grove Drive, Jet Propulsion Laboratory
    Pasadena, CA  91109   USA

    General site: https://ssd.jpl.nasa.gov/
    Mailing list: https://ssd.jpl.nasa.gov/email_list.html
    System news : https://ssd.jpl.nasa.gov/horizons/news.html
    User Guide  : https://ssd.jpl.nasa.gov/horizons/manual.html
    Connect     : browser        https://ssd.jpl.nasa.gov/horizons/app.html#/x
                  API            https://ssd-api.jpl.nasa.gov/doc/horizons.html
                  command-line   telnet ssd.jpl.nasa.gov 6775
                  e-mail/batch   https://ssd.jpl.nasa.gov/ftp/ssd/hrzn_batch.txt
                  scripts        https://ssd.jpl.nasa.gov/ftp/ssd/SCRIPTS
    Author      : Jon.D.Giorgini@jpl.nasa.gov
*******************************************************************************
